[{"OBJECT_NAME":"STARLINK-30706","OBJECT_ID":"2023-148N","EPOCH":"2026-03-09T06:07:57.311616","MEAN_MOTION":15.30185093,"ECCENTRICITY":0.00015148,"INCLINATION":53.1625,"RA_OF_ASC_NODE":26.448,"ARG_OF_PERICENTER":84.0593,"MEAN_ANOMALY":276.058,"EPHEMERIS_TYPE":0,"CLASSIFICATION_TYPE":"U","NORAD_CAT_ID":57947,"ELEMENT_SET_NO":999,"REV_AT_EPOCH":13835,"BSTAR":-7.8200386e-5,"MEAN_MOTION_DOT":-2.673e-5,"MEAN_MOTION_DDOT":0},{"OBJECT_NAME":"KUIPER-00175","OBJECT_ID":"2025-301C","EPOCH":"2026-03-09T23:30:37.840032","MEAN_MOTION":15.30996371,"ECCENTRICITY":0.00022792,"INCLINATION":51.8781,"RA_OF_ASC_NODE":63.6978,"ARG_OF_PERICENTER":50.5695,"MEAN_ANOMALY":309.549,"EPHEMERIS_TYPE":0,"CLASSIFICATION_TYPE":"U","NORAD_CAT_ID":67135,"ELEMENT_SET_NO":999,"REV_AT_EPOCH":1385,"BSTAR":0.00066732304,"MEAN_MOTION_DOT":0.00019968,"MEAN_MOTION_DDOT":0}]
